CXO                     
1 25867U 99040B   25288.43817974  .00000826  00000+0  00000+0 0  9992
2 25867  51.9505 124.6447 8239156 310.6333   0.0894  0.37806235 16390
XMM-NEWTON              
1 25989U 99066A   25289.03042578  .00000016  00000+0  00000+0 0  9993
2 25989  65.6996 286.1977 4770935  69.2389   0.1682  0.50134194 21780
IMAGE                   
1 26113U 00017A   25283.06795214 -.00000272  00000+0 -15372-1 0  9996
2 26113  93.9510 311.7881 7614260 317.0625   4.2756  1.68663288157286
CLUSTER II-FM7 (SAMBA)  
1 26410U 00041A   25276.47299647  .00001051  00000+0  00000+0 0  9993
2 26410 146.2679  18.6784 8618747 234.1801   0.6428  0.44781325 19165
CLUSTER II-FM5 (RUMBA)  
1 26463U 00045A   25279.65635572  .00010692 -63660-5  00000+0 0  9998
2 26463 146.6979  96.1587 9117658 315.8839   1.9747  0.42958277 19041
CLUSTER II-FM8 (TANGO)  
1 26464U 00045B   25287.99470689  .00000651  00000+0  00000+0 0  9997
2 26464 146.8337  20.2833 8652194 235.6391   0.7770  0.44417766 19200
THEMIS A                
1 30580U 07004A   25284.99616693  .00000076  00000+0  41135-2 0  9995
2 30580   4.0753 154.1403 8448514 126.5090 342.3938  0.87835110 39098
MMS 1                   
1 40482U 15011A   25287.00005787 -.00001418  00000+0  00000+0 0  9990
2 40482  68.0855 352.5477 8570408 162.1686  26.9098  0.28378677  1370
MMS 2                   
1 40483U 15011B   25287.00005787 -.00001418  00000+0  00000+0 0  9991
2 40483  68.0900 352.5450 8573029 162.1654  26.9301  0.28378700  1374
MMS 3                   
1 40484U 15011C   25287.00005787 -.00001419  00000+0  00000+0 0  9993
2 40484  68.0932 352.5552 8571907 162.1751  26.8986  0.28378716  1379
MMS 4                   
1 40485U 15011D   25287.00005787 -.00001419  00000+0  00000+0 0  9994
2 40485  68.0817 352.5422 8572159 162.1836  26.8619  0.28378772  1377
ARASE (ERG)             
1 41896U 16080A   25283.57767017  .00000253  00000+0  73072-3 0  9994
2 41896  31.5062 107.7720 6980648 254.8397  23.9892  2.57160417 81858
COSMOS 2518             
1 42719U 17027A   25283.74321014  .00000652  00000+0 -15751-1 0  9995
2 42719  63.0711 279.5746 7107233 273.0694  14.9565  2.00749954 61396
PROBA-3 CSC             
1 62256U 24233A   25285.14382466 -.00000054  00000+0  87660-3 0  9990
2 62256  59.4589 118.5740 8042006 198.1406  92.2646  1.22076585  3792
NVS-02 (IRNSS-1K)       
1 62850U 25020A   25284.50149008  .00001027  00000+0  69316-3 0  9995
2 62850  21.1018 350.1146 7354370 345.8338   1.6692  2.17514688  5561
